[Satellite]
VERSION=1.1
NAME=AMOS 5I
NICKNAME=AMOS 5I
TLE1=1 23723U 95064A   11059.84266448  .00000088  00000-0  10000-3 0  4534
TLE2=2 23723   0.4851  78.7401 0003181 261.2684 138.6067  1.00272103 55878
